NORAD_CAT_ID,OBJECT_NAME,OBJECT_TYPE,EPOCH,MEAN_MOTION,ECCENTRICITY,INCLINATION,RA_OF_ASC_NODE,ARG_OF_PERICENTER,MEAN_ANOMALY,BSTAR,MEAN_MOTION_DOT,MEAN_MOTION_DDOT,TLE_LINE0,TLE_LINE1,TLE_LINE2,SEMIMAJOR_AXIS,PERIOD,APOGEE,PERIGEE,DECAYED
51866.0,STARLINK-3553,PAYLOAD,2024-07-15 09:00:28,15.08847177,0.0001691,53.2166,192.872,80.9032,279.2152,3.6524e-05,2.93e-06,0.0,0 STARLINK-3553,1 51866U 22022Q   24197.37533351  .00000293  00000-0  36524-4 0  9995,2 51866  53.2166 192.8720 0001691  80.9032 279.2152 15.08847177132180,6917.858,95.437,540.893,538.554,0.0
51866.0,STARLINK-3553,PAYLOAD,2024-07-15 16:57:24,15.08848599,0.0001714,53.2168,191.3853,81.0891,279.0295,4.2787e-05,3.93e-06,0.0,0 STARLINK-3553,1 51866U 22022Q   24197.70653127  .00000393  00000-0  42787-4 0  9995,2 51866  53.2168 191.3853 0001714  81.0891 279.0295 15.08848599132235,6917.854,95.437,540.905,538.533,0.0
51866.0,STARLINK-3553,PAYLOAD,2024-07-16 05:40:29,15.08837483,0.0001505,53.2153,189.0053,85.9492,274.1673,3.8527e-05,3.25e-06,0.0,0 STARLINK-3553,1 51866U 22022Q   24198.23645682  .00000325  00000-0  38527-4 0  9993,2 51866  53.2153 189.0053 0001505  85.9492 274.1673 15.08837483132318,6917.888,95.438,540.794,538.712,0.0
51866.0,STARLINK-3553,PAYLOAD,2024-07-16 08:51:15,15.08840312,0.000155,53.2156,188.4105,85.2349,274.882,5.6574e-05,6.12e-06,0.0,0 STARLINK-3553,1 51866U 22022Q   24198.36893463  .00000612  00000-0  56574-4 0  9990,2 51866  53.2156 188.4105 0001550  85.2349 274.8820 15.08840312132334,6917.879,95.438,540.817,538.672,0.0
51866.0,STARLINK-3553,PAYLOAD,2024-07-17 08:42:03,15.08839786,0.0001503,53.2158,183.9475,100.6939,259.4223,-3.2995e-05,-8.13e-06,0.0,0 STARLINK-3553,1 51866U 22022Q   24199.36253744 -.00000813  00000-0 -32995-4 0  9999,2 51866  53.2158 183.9475 0001503 100.6939 259.4223 15.08839786132486,6917.881,95.438,540.786,538.706,0.0
51866.0,STARLINK-3553,PAYLOAD,2024-07-18 08:32:50,15.08839109,0.0001541,53.2163,179.4876,98.7215,261.3951,5.462e-05,5.81e-06,0.0,0 STARLINK-3553,1 51866U 22022Q   24200.35613792  .00000581  00000-0  54620-4 0  9993,2 51866  53.2163 179.4876 0001541  98.7215 261.3951 15.08839109132639,6917.883,95.438,540.814,538.682,0.0
51866.0,STARLINK-3553,PAYLOAD,2024-07-19 05:12:51,15.08838079,0.000145,53.2162,175.6225,96.9079,263.2078,6.8709e-05,8.06e-06,0.0,0 STARLINK-3553,1 51866U 22022Q   24201.21726012  .00000806  00000-0  68709-4 0  9992,2 51866  53.2162 175.6225 0001450  96.9079 263.2078 15.08838079132761,6917.886,95.438,540.754,538.748,0.0
51866.0,STARLINK-3553,PAYLOAD,2024-07-19 14:45:09,15.08846677,0.0001413,53.2165,173.8388,94.8961,265.2192,0.00012248,1.662e-05,0.0,0 STARLINK-3553,1 51866U 22022Q   24201.61469190  .00001662  00000-0  12248-3 0  9994,2 51866  53.2165 173.8388 0001413  94.8961 265.2192 15.08846677132829,6917.86,95.437,540.702,538.747,0.0
51866.0,STARLINK-3553,PAYLOAD,2024-07-20 05:03:38,15.08838767,0.0001622,53.2181,171.1708,109.1581,250.9587,-6.1306e-06,-3.86e-06,0.0,0 STARLINK-3553,1 51866U 22022Q   24202.21086287 -.00000386  00000-0 -61306-5 0  9998,2 51866  53.2181 171.1708 0001622 109.1581 250.9587 15.08838767132914,6917.884,95.438,540.871,538.627,0.0
51866.0,STARLINK-3553,PAYLOAD,2024-07-20 14:35:56,15.08848736,0.000152,53.2178,169.3811,98.5073,261.6091,0.000113,1.511e-05,0.0,0 STARLINK-3553,1 51866U 22022Q   24202.60829198  .00001511  00000-0  11300-3 0  9993,2 51866  53.2178 169.3811 0001520  98.5073 261.6091 15.08848736132970,6917.854,95.437,540.77,538.667,0.0
51866.0,STARLINK-3553,PAYLOAD,2024-07-21 04:54:25,15.08834384,0.0001346,53.2163,166.7065,102.6864,257.4279,-2.7029e-05,-7.18e-06,0.0,0 STARLINK-3553,1 51866U 22022Q   24203.20446659 -.00000718  00000-0 -27029-4 0  9993,2 51866  53.2163 166.7065 0001346 102.6864 257.4279 15.08834384133063,6917.898,95.438,540.694,538.831,0.0
51866.0,STARLINK-3553,PAYLOAD,2024-07-22 06:20:35,15.08839731,0.0001349,53.2164,161.9478,100.8483,259.2661,7.6208e-05,9.25e-06,0.0,0 STARLINK-3553,1 51866U 22022Q   24204.26430415  .00000925  00000-0  76208-4 0  9994,2 51866  53.2164 161.9478 0001349 100.8483 259.2661 15.08839731133223,6917.881,95.438,540.679,538.813,0.0
51866.0,STARLINK-3553,PAYLOAD,2024-07-22 20:39:04,15.08837887,0.0001285,53.2163,159.2713,95.8111,264.3028,0.0001861,2.675e-05,0.0,0 STARLINK-3553,1 51866U 22022Q   24204.86046348  .00002675  00000-0  18610-3 0  9994,2 51866  53.2163 159.2713 0001285  95.8111 264.3028 15.08837887133318,6917.887,95.438,540.641,538.863,0.0
51866.0,STARLINK-3553,PAYLOAD,2024-07-23 14:08:17,15.08859934,0.0001496,53.2164,155.9972,77.4376,282.6783,0.00028957,4.326e-05,0.0,0 STARLINK-3553,1 51866U 22022Q   24205.58909339  .00004326  00000-0  28957-3 0  9992,2 51866  53.2164 155.9972 0001496  77.4376 282.6783 15.08859934133422,6917.819,95.436,540.719,538.65,0.0
51866.0,STARLINK-3553,PAYLOAD,2024-07-23 20:29:51,15.08819479,0.0001261,53.2155,154.808,90.8794,269.2343,-0.0002088,-3.607e-05,0.0,0 STARLINK-3553,1 51866U 22022Q   24205.85407380 -.00003607  00000-0 -20880-3 0  9991,2 51866  53.2155 154.8080 0001261  90.8794 269.2343 15.08819479133460,6917.943,95.439,540.68,538.936,0.0
51866.0,STARLINK-3553,PAYLOAD,2024-07-24 02:51:24,15.08825691,0.0001424,53.2153,153.6189,90.0313,270.0842,-9.2961e-05,-1.767e-05,0.0,0 STARLINK-3553,1 51866U 22022Q   24206.11903382 -.00001767  00000-0 -92961-4 0  9999,2 51866  53.2153 153.6189 0001424  90.0313 270.0842 15.08825691133507,6917.924,95.438,540.774,538.804,0.0
51866.0,STARLINK-3553,PAYLOAD,2024-07-25 02:42:10,15.08851722,0.0001452,53.2154,149.1577,90.8132,269.3026,0.00041397,6.309e-05,0.0,0 STARLINK-3553,1 51866U 22022Q   24207.11262632  .00006309  00000-0  41397-3 0  9997,2 51866  53.2154 149.1577 0001452  90.8132 269.3026 15.08851722133652,6917.845,95.437,540.714,538.705,0.0
51866.0,STARLINK-3553,PAYLOAD,2024-07-26 02:32:58,15.08840078,0.0001445,53.2153,144.6976,100.0274,260.0881,0.00017993,2.577e-05,0.0,0 STARLINK-3553,1 51866U 22022Q   24208.10622989  .00002577  00000-0  17993-3 0  9990,2 51866  53.2153 144.6976 0001445 100.0274 260.0881 15.08840078133803,6917.88,95.438,540.745,538.746,0.0
51866.0,STARLINK-3553,PAYLOAD,2024-07-27 02:23:44,15.08849495,0.0001457,53.2153,140.2409,102.2447,257.8708,7.5511e-05,9.14e-06,0.0,0 STARLINK-3553,1 51866U 22022Q   24209.09982224  .00000914  00000-0  75511-4 0  9994,2 51866  53.2153 140.2409 0001457 102.2447 257.8708 15.08849495133955,6917.851,95.437,540.724,538.708,0.0
51866.0,STARLINK-3553,PAYLOAD,2024-07-27 19:52:59,15.08834968,4.99e-05,53.2156,136.9637,51.3063,308.7973,3.9694e-05,3.44e-06,0.0,0 STARLINK-3553,1 51866U 22022Q   24209.82846800  .00000344  00000-0  39694-4 0  9993,2 51866  53.2156 136.9637 0000499  51.3063 308.7973 15.08834968134068,6917.896,95.438,540.106,539.416,0.0
51866.0,STARLINK-3553,PAYLOAD,2024-07-28 02:14:33,15.08818384,0.0001228,53.2149,135.7783,85.4647,274.6486,-0.00023464,-4.018e-05,0.0,0 STARLINK-3553,1 51866U 22022Q   24210.09343841 -.00004018  00000-0 -23464-3 0  9992,2 51866  53.2149 135.7783 0001228  85.4647 274.6486 15.08818384134105,6917.946,95.439,540.661,538.962,0.0
51866.0,STARLINK-3553,PAYLOAD,2024-07-28 22:54:32,15.08862092,0.0001181,53.2151,131.9109,89.6975,270.4152,-0.00067506,-0.00011022,0.0,0 STARLINK-3553,1 51866U 22022Q   24210.95454491 -.00011022  00000-0 -67506-3 0  9999,2 51866  53.2151 131.9109 0001181  89.6975 270.4152 15.08862092134239,6917.813,95.436,540.495,538.861,0.0
51866.0,STARLINK-3553,PAYLOAD,2024-07-29 02:05:17,15.08895388,0.0001029,53.2155,131.3178,108.9802,251.1302,-0.0014154,-0.00022777,0.0,0 STARLINK-3553,1 51866U 22022Q   24211.08700344 -.00022777  00000-0 -14154-2 0  9994,2 51866  53.2155 131.3178 0001029 108.9802 251.1302 15.08895388134257,6917.711,95.434,540.288,538.864,0.0
51866.0,STARLINK-3553,PAYLOAD,2024-07-29 11:37:37,15.08866745,0.0001262,53.2156,129.5332,90.0531,270.0606,0.00032378,4.873e-05,0.0,0 STARLINK-3553,1 51866U 22022Q   24211.48446328  .00004873  00000-0  32378-3 0  9991,2 51866  53.2156 129.5332 0001262  90.0531 270.0606 15.08866745134317,6917.799,95.436,540.537,538.791,0.0
51866.0,STARLINK-3553,PAYLOAD,2024-07-29 22:45:20,15.08845101,0.0003008,53.2155,127.4498,85.3529,274.7807,0.00040369,6.143e-05,0.0,0 STARLINK-3553,1 51866U 22022Q   24211.94815950  .00006143  00000-0  40369-3 0  9994,2 51866  53.2155 127.4498 0003008  85.3529 274.7807 15.08845101134384,6917.865,95.437,541.811,537.649,0.0
51866.0,STARLINK-3553,PAYLOAD,2024-07-30 01:56:07,15.08841826,0.0001468,53.2154,126.8577,88.2247,271.8914,0.00035062,5.297e-05,0.0,0 STARLINK-3553,1 51866U 22022Q   24212.08063896  .00005297  00000-0  35062-3 0  9997,2 51866  53.2154 126.8577 0001468  88.2247 271.8914 15.08841826134401,6917.875,95.437,540.755,538.724,0.0
51866.0,STARLINK-3553,PAYLOAD,2024-07-30 11:28:25,15.08863903,0.0001579,53.2155,125.0706,82.5884,277.5287,0.00077139,0.00012018,0.0,0 STARLINK-3553,1 51866U 22022Q   24212.47807055  .00012018  00000-0  77139-3 0  9993,2 51866  53.2155 125.0706 0001579  82.5884 277.5287 15.08863903134466,6917.807,95.436,540.765,538.58,0.0
51866.0,STARLINK-3553,PAYLOAD,2024-07-30 22:36:07,15.08847211,0.000208,53.2153,122.9891,86.3604,273.7626,0.00054664,8.424e-05,0.0,0 STARLINK-3553,1 51866U 22022Q   24212.94175263  .00008424  00000-0  54664-3 0  9998,2 51866  53.2153 122.9891 0002080  86.3604 273.7626 15.08847211134532,6917.858,95.437,541.162,538.284,0.0
51866.0,STARLINK-3553,PAYLOAD,2024-07-31 01:46:53,15.08854465,0.0001609,53.2159,122.3946,85.2568,274.8608,0.00018173,2.607e-05,0.0,0 STARLINK-3553,1 51866U 22022Q   24213.07422821  .00002607  00000-0  18173-3 0  9990,2 51866  53.2159 122.3946 0001609  85.2568 274.8608 15.08854465134559,6917.836,95.437,540.814,538.588,0.0
51866.0,STARLINK-3553,PAYLOAD,2024-07-31 11:19:11,15.08866912,0.0001758,53.2176,120.6047,84.1116,276.0077,0.00033355,5.028e-05,0.0,0 STARLINK-3553,1 51866U 22022Q   24213.47165951  .00005028  00000-0  33355-3 0  9991,2 51866  53.2176 120.6047 0001758  84.1116 276.0077 15.08866912134614,6917.798,95.436,540.879,538.447,0.0
